OSCAR 7 (AO-7)          
1 07530U 74089B   26159.85767655 -.00000037  00000+0  60281-4 0  9996
2 07530 101.9901 173.0172 0012490 145.6484 337.4400 12.53697926359476
PHASE 3B (AO-10)        
1 14129U 83058B   26158.17238870 -.00000194  00000+0  00000+0 0  9992
2 14129  25.9048 221.2242 6014266 112.9115 319.2048  2.05872980295281
UOSAT 2 (UO-11)         
1 14781U 84021B   26159.62992578  .00001284  00000+0  13628-3 0  9994
2 14781  97.8053 125.3005 0006842 201.4701 158.6231 14.90763045255856
LUSAT (LO-19)           
1 20442U 90005G   26159.04225351  .00000130  00000+0  63300-4 0  9990
2 20442  98.8852 180.5956 0010666 229.5628 130.4627 14.34120497901087
EYESAT A (AO-27)        
1 22825U 93061C   26159.74885169  .00000098  00000+0  54073-4 0  9998
2 22825  98.6881 227.1651 0009403 121.6345 238.5756 14.30940118705798
ITAMSAT (IO-26)         
1 22826U 93061D   26159.73078071  .00000103  00000+0  55484-4 0  9998
2 22826  98.6829 227.0636 0010048 106.9907 253.2378 14.31366720706102
RADIO ROSTO (RS15)      
1 23439U 94085A   26159.77920722 -.00000033  00000+0  26610-3 0  9990
2 23439  64.8186 316.8145 0155693   5.4303 354.8266 11.27583634294951
JAS-2 (FO-29)           
1 24278U 96046B   26159.80859493 -.00000009  00000+0  23431-4 0  9993
2 24278  98.5248   9.8285 0350764 118.1164 245.5894 13.53273721472037
TECHSAT 1B (GO-32)      
1 25397U 98043D   26159.70546889  .00000072  00000+0  51506-4 0  9999
2 25397  99.0065 152.2503 0000575 185.5872 174.5300 14.24426807450128
ISS (ZARYA)             
1 25544U 98067A   26159.80410962  .00007129  00000+0  13425-3 0  9999
2 25544  51.6336 341.5878 0006923 148.5365 211.6039 15.49672912570453
PCSAT (NO-44)           
1 26931U 01043C   26159.70801494  .00000132  00000+0  80309-4 0  9994
2 26931  67.0512 266.2023 0006110 264.2688  95.7717 14.31953256289238
SAUDISAT 1C (SO-50)     
1 27607U 02058C   26159.59134089  .00001122  00000+0  14940-3 0  9995
2 27607  64.5503 155.5805 0075448 264.0559  95.1944 14.83028843263188
CUTE-1 (CO-55)          
1 27844U 03031E   26159.74789500  .00000310  00000+0  15325-3 0  9997
2 27844  98.6735 168.4129 0008975 203.1783 156.8992 14.24330726190472
CUBESAT XI-IV (CO-57)   
1 27848U 03031J   26158.95900341  .00000277  00000+0  14071-3 0  9990
2 27848  98.6766 167.3539 0008515 225.8669 134.1810 14.23616071190069
MOZHAETS 4 (RS22)       
1 27939U 03042A   26159.86808723  .00000968  00000+0  15736-3 0  9991
2 27939  98.3475 343.9923 0010180 299.6521 167.4636 14.73453343214327
CUBESAT XI-V            
1 28895U 05043F   26158.95798337  .00001615  00000+0  26180-3 0  9999
2 28895  98.2976 314.3867 0013088 231.5140 128.4894 14.72607812100390
CUTE-1.7+APD II (CO-65) 
1 32785U 08021C   26159.76336008  .00006172  00000+0  39011-3 0  9994
2 32785  97.8271 141.0073 0010357  63.4149 296.8139 15.09373528983922
YUBILEINY (RS30)        
1 32953U 08025A   26159.88970182  .00000025  00000+0  10641-3 0  9994
2 32953  82.5048   0.6025 0019223 332.6006  27.4059 12.43178844818669
KKS-1 (KISEKI)          
1 33499U 09002H   26159.82327112  .00001395  00000+0  17809-3 0  9993
2 33499  98.1193  82.1331 0007035 327.2782  32.7994 14.83102975934959
SWISSCUBE               
1 35932U 09051B   26159.00067640  .00001155  00000+0  23775-3 0  9991
2 35932  98.4042  66.7288 0005474 236.3791 123.6888 14.62465103887819
BEESAT-1                
1 35933U 09051C   26159.82678422  .00000832  00000+0  17692-3 0  9990
2 35933  98.3972  67.2222 0003912 250.2428 109.8351 14.61707311887968
ITUPSAT1                
1 35935U 09051E   26158.98819542  .00000873  00000+0  19037-3 0  9998
2 35935  98.4056  65.5723 0006074 268.4530  91.5974 14.60427678887397
XIWANG-1 (HOPE-1)       
1 36122U 09072B   26159.80797943 -.00000271  00000+0 -59389-3 0  9990
2 36122 100.4026 113.7740 0006799 252.8596 107.1773 13.16438385791904
O/OREOS (USA 219)       
1 37224U 10062C   26159.55696797  .00002574  00000+0  24866-3 0  9990
2 37224  71.9704  99.8869 0012387  81.9888 278.2687 14.93708178115353
JUGNU                   
1 37839U 11058B   26159.24405093  .00000426  00000+0  83200-4 0  9993
2 37839  19.9622   2.7589 0018522 337.7505 350.9134 14.13774450757752
STRAND-1                
1 39090U 13009E   26159.77100359  .00000307  00000+0  11756-3 0  9991
2 39090  98.3921 340.2126 0007427 254.1198 105.9170 14.37158481695851
ZACUBE-1 (TSHEPISOSAT)  
1 39417U 13066B   26159.80860692  .00004176  00000+0  32547-3 0  9993
2 39417  97.8093 122.1001 0040039 277.1719  82.4953 15.01138401679477
GOMX-1                  
1 39430U 13066Q   26159.81037453  .00002304  00000+0  34917-3 0  9994
2 39430  97.6493   0.8016 0130130 104.1329 257.4378 14.69430163668689
